[{"OBJECT_NAME":"STARLINK-31345","OBJECT_ID":"2024-027L","EPOCH":"2026-03-09T23:13:52.767840","MEAN_MOTION":15.30186465,"ECCENTRICITY":0.00010508,"INCLINATION":53.161,"RA_OF_ASC_NODE":308.1399,"ARG_OF_PERICENTER":101.158,"MEAN_ANOMALY":258.9539,"EPHEMERIS_TYPE":0,"CLASSIFICATION_TYPE":"U","NORAD_CAT_ID":58941,"ELEMENT_SET_NO":999,"REV_AT_EPOCH":11737,"BSTAR":1.9177052e-5,"MEAN_MOTION_DOT":2.09e-6,"MEAN_MOTION_DDOT":0},{"OBJECT_NAME":"ELECTRON KICK STAGE R\/B","OBJECT_ID":"2025-061J","EPOCH":"2026-03-09T21:50:35.145600","MEAN_MOTION":15.31602074,"ECCENTRICITY":0.00402669,"INCLINATION":97.5479,"RA_OF_ASC_NODE":52.3854,"ARG_OF_PERICENTER":150.2628,"MEAN_ANOMALY":210.0914,"EPHEMERIS_TYPE":0,"CLASSIFICATION_TYPE":"U","NORAD_CAT_ID":63359,"ELEMENT_SET_NO":999,"REV_AT_EPOCH":5306,"BSTAR":0.0006963674,"MEAN_MOTION_DOT":0.00021749,"MEAN_MOTION_DDOT":0}]
